FENGYUN 3D              
1 43010U 17072A   26194.50488207 -.00000167  00000+0 -56902-4 0  9992
2 43010  99.0134 169.4046 0001686  17.8321 342.2913 14.19743524448728
NOAA 20 (JPSS-1)        
1 43013U 17073A   26194.43368407  .00000014  00000+0  27366-4 0  9998
2 43013  98.7773 133.6637 0001325 125.9356 234.1943 14.19516234448193
GOES 17                 
1 43226U 18022A   26194.50947838 -.00000187  00000+0  00000+0 0  9991
2 43226   1.0022  85.2830 0000528  84.7861 215.2345  1.00271287 30686
SENTINEL-3B             
1 43437U 18039A   26194.20787992  .00000001  00000+0  18273-4 0  9993
2 43437  98.6237 261.3652 0001093 119.4776 240.6513 14.26735949427836
FENGYUN 2H              
1 43491U 18050A   26194.50540553 -.00000133  00000+0  00000+0 0  9990
2 43491   3.0955  78.7609 0002306 133.1773 340.5473  1.00267298 29707
METOP-C                 
1 43689U 18087A   26194.46325816  .00000050  00000+0  42585-4 0  9993
2 43689  98.6631 253.5848 0002216  96.0775 264.0655 14.21518744398561
GEO-KOMPSAT-2A          
1 43823U 18100A   26194.51510824 -.00000348  00000+0  00000+0 0  9992
2 43823   0.0269 111.4967 0001940 350.4228 143.1742  1.00270535 27897
METEOR-M2 2             
1 44387U 19038A   26194.51667153  .00000219  00000+0  11448-3 0  9995
2 44387  98.9152 182.1922 0000864   5.9809 354.1380 14.24373270365041
ARKTIKA-M 1             
1 47719U 21016A   26188.42887598 -.00000257  00000+0  00000+0 0  9997
2 47719  63.2524  54.6812 7295086 270.0380  14.5466  2.00614486 39194
FENGYUN 3E              
1 49008U 21062A   26194.48584069  .00000389  00000+0  20378-3 0  9990
2 49008  98.7497 197.6009 0002337  42.2211 317.9145 14.19907695260319
GOES 18                 
1 51850U 22021A   26194.52127852  .00000093  00000+0  00000+0 0  9990
2 51850   0.0167 128.5617 0000382  66.0770 147.4172  1.00270131  6854
NOAA 21 (JPSS-2)        
1 54234U 22150A   26194.46600992 -.00000016  00000+0  13120-4 0  9994
2 54234  98.7060 132.8139 0002788 107.6637 252.4843 14.19540844190279
METEOSAT-12 (MTG-I1)    
1 54743U 22170C   26194.34709719 -.00000012  00000+0  00000+0 0  9999
2 54743   0.7231  19.3869 0003762  82.4326 314.0654  1.00267253 13246
TIANMU-1 03             
1 55973U 23039A   26194.49451648  .00009213  00000+0  17807-3 0  9999
2 55973  97.5234   9.5093 0002735  31.4590 328.6823 15.48011461184901
TIANMU-1 04             
1 55974U 23039B   26194.53824193  .00009638  00000+0  18218-3 0  9992
2 55974  97.5170   8.7106 0003176  19.2188 340.9182 15.48636648184921
TIANMU-1 05             
1 55975U 23039C   26194.47657369  .00009559  00000+0  18515-3 0  9997
2 55975  97.5216   9.0957 0003118  49.9757 310.1766 15.47935328184887
TIANMU-1 06             
1 55976U 23039D   26194.47869691  .00009620  00000+0  18250-3 0  9996
2 55976  97.5222   9.7604 0003224  41.7998 318.3497 15.48532779184915
FENGYUN 3G              
1 56232U 23055A   26194.48346355  .00013380  00000+0  21147-3 0  9995
2 56232  49.9904 210.4099 0007110  47.9790 312.1782 15.53735355184093
METEOR-M2 3             
1 57166U 23091A   26194.51707292 -.00000005  00000+0  16739-4 0  9990
2 57166  98.6069 248.9547 0005149  94.0772 266.0995 14.24048834158269
TIANMU-1 07             
1 57399U 23101A   26194.45776920  .00003641  00000+0  12751-3 0  9994
2 57399  97.2581 244.5252 0003845  68.5353 291.6297 15.30102923165667
TIANMU-1 08             
1 57400U 23101B   26194.42434057  .00003650  00000+0  12780-3 0  9998
2 57400  97.2570 244.2594 0004777  51.2493 308.9174 15.30106518165652
TIANMU-1 09             
1 57401U 23101C   26194.47254459  .00003727  00000+0  13029-3 0  9992
2 57401  97.2528 243.7089 0004461  68.7935 291.3782 15.30147379165664
TIANMU-1 10             
1 57402U 23101D   26194.50605765  .00003766  00000+0  13171-3 0  9998
2 57402  97.2608 244.8190 0005780  59.0880 301.0928 15.30121241165667
FENGYUN 3F              
1 57490U 23111A   26194.46912616  .00000007  00000+0  23700-4 0  9992
2 57490  98.6826 263.9868 0001307  77.1278 283.0045 14.19943247152599
ARKTIKA-M 2             
1 58584U 23198A   26191.19028483  .00000186  00000+0  00000+0 0  9990
2 58584  63.2187 151.7914 6909064 267.3543  18.7503  2.00608615 18787
TIANMU-1 11             
1 58645U 23205A   26194.52541963  .00003030  00000+0  11616-3 0  9990
2 58645  97.3441 215.6723 0006760 269.6019  90.4445 15.27253407141543
TIANMU-1 12             
1 58646U 23205B   26194.49763442  .00003178  00000+0  12236-3 0  9997
2 58646  97.3430 215.3926 0005690 242.0488 118.0175 15.27084781141522
TIANMU-1 13             
1 58647U 23205C   26194.46554132  .00003186  00000+0  12269-3 0  9994
2 58647  97.3458 215.6404 0005628 219.4793 140.6036 15.27077044141515
TIANMU-1 14             
1 58648U 23205D   26194.51550890  .00003205  00000+0  12321-3 0  9999
2 58648  97.3394 214.8508 0006273 227.2440 132.8272 15.27121340141529
TIANMU-1 19             
1 58660U 23208A   26194.48270109  .00004809  00000+0  15840-3 0  9994
2 58660  97.4526 310.9261 0004421 204.6572 155.4458 15.31959065141359
TIANMU-1 20             
1 58661U 23208B   26194.56536937  .00004730  00000+0  15015-3 0  9995
2 58661  97.4468 311.6721 0006186 218.4418 141.6384 15.33148711141463
