OBJECT_NAME,OBJECT_ID,EPOCH,MEAN_MOTION,ECCENTRICITY,INCLINATION,RA_OF_ASC_NODE,ARG_OF_PERICENTER,MEAN_ANOMALY,EPHEMERIS_TYPE,CLASSIFICATION_TYPE,NORAD_CAT_ID,ELEMENT_SET_NO,REV_AT_EPOCH,BSTAR,MEAN_MOTION_DOT,MEAN_MOTION_DDOT
FENGYUN 3D,2017-072A,2026-07-13T12:07:01.810848,14.19743524,.0001686,99.0134,169.4046,17.8321,342.2913,0,U,43010,999,44872,-.56902E-4,-.167E-5,0
NOAA 20 (JPSS-1),2017-073A,2026-07-13T10:24:30.303648,14.19516234,.0001325,98.7773,133.6637,125.9356,234.1943,0,U,43013,999,44819,.27366E-4,.14E-6,0
GOES 17,2018-022A,2026-07-13T12:13:38.932032,1.00271287,.0000528,1.0022,85.2830,84.7861,215.2345,0,U,43226,999,3068,0,-.187E-5,0
SENTINEL-3B,2018-039A,2026-07-13T04:59:20.825088,14.26735949,.0001093,98.6237,261.3652,119.4776,240.6513,0,U,43437,999,42783,.18273E-4,.1E-7,0
FENGYUN 2H,2018-050A,2026-07-13T12:07:47.037792,1.00267298,.0002306,3.0955,78.7609,133.1773,340.5473,0,U,43491,999,2970,0,-.133E-5,0
METOP-C,2018-087A,2026-07-13T11:07:05.505024,14.21518744,.0002216,98.6631,253.5848,96.0775,264.0655,0,U,43689,999,39856,.42585E-4,.5E-6,0
GEO-KOMPSAT-2A,2018-100A,2026-07-13T12:21:45.351936,1.00270535,.000194,0.0269,111.4967,350.4228,143.1742,0,U,43823,999,2789,0,-.348E-5,0
METEOR-M2 2,2019-038A,2026-07-13T12:24:00.420192,14.24373270,.0000864,98.9152,182.1922,5.9809,354.1380,0,U,44387,999,36504,.11448E-3,.219E-5,0
ARKTIKA-M 1,2021-016A,2026-07-07T10:17:34.884672,2.00614486,.72950864,63.2524,54.6812,270.0380,14.5466,0,U,47719,999,3919,0,-.257E-5,0
FENGYUN 3E,2021-062A,2026-07-13T11:39:36.635616,14.19907695,.0002337,98.7497,197.6009,42.2211,317.9145,0,U,49008,999,26031,.20378E-3,.389E-5,0
GOES 18,2022-021A,2026-07-13T12:30:38.464128,1.00270131,.0000382,0.0167,128.5617,66.0770,147.4172,0,U,51850,999,685,0,.93E-6,0
NOAA 21 (JPSS-2),2022-150A,2026-07-13T11:11:03.257088,14.19540844,.0002788,98.7060,132.8139,107.6637,252.4843,0,U,54234,999,19027,.1312E-4,-.16E-6,0
METEOSAT-12 (MTG-I1),2022-170C,2026-07-13T08:19:49.197216,1.00267253,.0003762,0.7231,19.3869,82.4326,314.0654,0,U,54743,999,1324,0,-.12E-6,0
TIANMU-1 03,2023-039A,2026-07-13T11:52:06.223872,15.48011461,.0002735,97.5234,9.5093,31.4590,328.6823,0,U,55973,999,18490,.17807E-3,.9213E-4,0
TIANMU-1 04,2023-039B,2026-07-13T12:55:04.102752,15.48636648,.0003176,97.5170,8.7106,19.2188,340.9182,0,U,55974,999,18492,.18218E-3,.9638E-4,0
TIANMU-1 05,2023-039C,2026-07-13T11:26:15.966816,15.47935328,.0003118,97.5216,9.0957,49.9757,310.1766,0,U,55975,999,18488,.18515E-3,.9559E-4,0
TIANMU-1 06,2023-039D,2026-07-13T11:29:19.413024,15.48532779,.0003224,97.5222,9.7604,41.7998,318.3497,0,U,55976,999,18491,.1825E-3,.962E-4,0
FENGYUN 3G,2023-055A,2026-07-13T11:36:11.250720,15.53735355,.000711,49.9904,210.4099,47.9790,312.1782,0,U,56232,999,18409,.21147E-3,.1338E-3,0
METEOR-M2 3,2023-091A,2026-07-13T12:24:35.100288,14.24048834,.0005149,98.6069,248.9547,94.0772,266.0995,0,U,57166,999,15826,.16739E-4,-.5E-7,0
TIANMU-1 07,2023-101A,2026-07-13T10:59:11.258880,15.30102923,.0003845,97.2581,244.5252,68.5353,291.6297,0,U,57399,999,16566,.12751E-3,.3641E-4,0
TIANMU-1 08,2023-101B,2026-07-13T10:11:03.025248,15.30106518,.0004777,97.2570,244.2594,51.2493,308.9174,0,U,57400,999,16565,.1278E-3,.365E-4,0
TIANMU-1 09,2023-101C,2026-07-13T11:20:27.852576,15.30147379,.0004461,97.2528,243.7089,68.7935,291.3782,0,U,57401,999,16566,.13029E-3,.3727E-4,0
TIANMU-1 10,2023-101D,2026-07-13T12:08:43.380960,15.30121241,.000578,97.2608,244.8190,59.0880,301.0928,0,U,57402,999,16566,.13171E-3,.3766E-4,0
FENGYUN 3F,2023-111A,2026-07-13T11:15:32.500224,14.19943247,.0001307,98.6826,263.9868,77.1278,283.0045,0,U,57490,999,15259,.237E-4,.7E-7,0
ARKTIKA-M 2,2023-198A,2026-07-10T04:34:00.609312,2.00608615,.69090643,63.2187,151.7914,267.3543,18.7503,0,U,58584,999,1878,0,.186E-5,0
TIANMU-1 11,2023-205A,2026-07-13T12:36:36.256032,15.27253407,.000676,97.3441,215.6723,269.6019,90.4445,0,U,58645,999,14154,.11616E-3,.303E-4,0
TIANMU-1 12,2023-205B,2026-07-13T11:56:35.613888,15.27084781,.000569,97.3430,215.3926,242.0488,118.0175,0,U,58646,999,14152,.12236E-3,.3178E-4,0
TIANMU-1 13,2023-205C,2026-07-13T11:10:22.770048,15.27077044,.0005628,97.3458,215.6404,219.4793,140.6036,0,U,58647,999,14151,.12269E-3,.3186E-4,0
TIANMU-1 14,2023-205D,2026-07-13T12:22:19.968960,15.27121340,.0006273,97.3394,214.8508,227.2440,132.8272,0,U,58648,999,14152,.12321E-3,.3205E-4,0
TIANMU-1 19,2023-208A,2026-07-13T11:35:05.374176,15.31959065,.0004421,97.4526,310.9261,204.6572,155.4458,0,U,58660,999,14135,.1584E-3,.4809E-4,0
TIANMU-1 20,2023-208B,2026-07-13T13:34:07.913568,15.33148711,.0006186,97.4468,311.6721,218.4418,141.6384,0,U,58661,999,14146,.15015E-3,.473E-4,0
